0 COSMOS 839 DEB
1 10466U 76067AK  13282.48294150  .00000286  00000-0  89526-3 0  4615
2 10466 065.8396 298.1464 0722041 202.3347 314.7236 12.48395648693438
0 COSMOS 839 DEB
1 10466U 76067AK  13285.44675728  .00000135  00000-0  50274-3 0  4620
2 10466 065.8391 292.2409 0721758 201.1636 314.7616 12.48397014693801
0 COSMOS 839 DEB
1 10466U 76067AK  13287.44994593  .00000051  00000-0  28289-3 0  4635
2 10466 065.8390 288.2494 0721610 200.3686 317.5444 12.48398217694056
0 COSMOS 839 DEB
1 10466U 76067AK  13290.41377264 -.00000165  00000-0 -27857-3 0  4645
2 10466 065.8392 282.3440 0721011 199.1982 317.6539 12.48398939694421
0 COSMOS 839 DEB
1 10466U 76067AK  13292.94875258 -.00000164  00000-0 -27720-3 0  4650
2 10466 065.8393 277.2934 0720738 198.1882 190.4486 12.48398388694747
0 COSMOS 839 DEB
1 10466U 76067AK  13295.29341950 -.00000139  00000-0 -21222-3 0  4662
2 10466 065.8391 272.6219 0720581 197.2513 287.9301 12.48397418695031
